*******************************************************************************
Ephemeris / WWW_USER Tue Mar 11 05:32:07 2025 Pasadena, USA      / Horizons    
*******************************************************************************
Target body name: (2018 VS1)                      {source: JPL#4}
Center body name: Earth (399)                     {source: DE441}
Center-site name: Gemini South Obs., Cerro Pachon
*******************************************************************************
Start time      : A.D. 2018-Aug-23 22:31:00.0000 UT      
Stop  time      : A.D. 2018-Aug-24 10:59:00.0000 UT      
Step-size       : 1 minutes
*******************************************************************************
Target pole/equ : undefined
Target radii    : undefined                                                    
Center geodetic : 289.2634, -30.2406227, 2.71233  {E-lon(deg),Lat(deg),Alt(km)}
Center cylindric: 289.2634,5517.21435,-3194.81213 {E-lon(deg),Dxy(km),Dz(km)}
Center pole/equ : ITRF93                          {East-longitude positive}
Center radii    : 6378.137, 6378.137, 6356.752 km {Equator_a, b, pole_c}       
Target primary  : Sun
Vis. interferer : MOON (R_eq= 1737.400) km        {source: DE441}
Rel. light bend : Sun                             {source: DE441}
Rel. lght bnd GM: 1.3271E+11 km^3/s^2                                          
Small-body perts: Yes                             {source: SB441-N16}
Atmos refraction: NO (AIRLESS)
RA format       : HMS
Time format     : CAL 
Calendar mode   : Mixed Julian/Gregorian
RTS-only print  : NO       
EOP file        : eop.250310.p250606                                           
EOP coverage    : DATA-BASED 1962-JAN-20 TO 2025-MAR-10. PREDICTS-> 2025-JUN-05
Units conversion: 1 au= 149597870.700 km, c= 299792.458 km/s, 1 day= 86400.0 s 
Table cut-offs 1: Elevation (-90.0deg=NO ),Airmass (>38.000=NO), Daylight (YES)
Table cut-offs 2: Solar elongation (  0.0,180.0=NO ),Local Hour Angle( 0.0=NO )
Table cut-offs 3: RA/DEC angular rate (     0.0=NO )                           
*******************************************************************************
Initial IAU76/J2000 heliocentric ecliptic osculating elements (au, days, deg.):
  EPOCH=  2458427.5 ! 2018-Nov-05.00 (TDB)         Residual RMS= .21634        
   EC= .3907275528854954   QR= .7806320880190512   TP= 2458486.1030618688      
   OM= 55.95483604725189   W=  67.17004921097404   IN= 3.601110299269385       
  Equivalent ICRF heliocentric cartesian coordinates (au, au/d):
   X= 7.595935200506908E-01  Y= 6.354459268576240E-01  Z= 2.586666727482118E-01
  VX=-1.643099138746886E-02 VY= 7.530892270769961E-03 VZ= 4.533522122669557E-03
Asteroid physical parameters (km, seconds, rotational period in hours):        
   GM= n.a.                RAD= n.a.               ROTPER= n.a.                
   H= 26.6                 G= .150                 B-V= n.a.                   
                           ALBEDO= n.a.            STYP= n.a.                  
*******************************************************************************
 Date__(UT)__HR:MN     R.A._________(ICRF)_________DEC
******************************************************
$$SOE
 2018-Aug-24 00:34  m  01 57 37.123522 +04 15 21.28046
 2018-Aug-24 00:35  m  01 57 37.180458 +04 15 21.40782
 2018-Aug-24 00:36  m  01 57 37.237382 +04 15 21.53519
 2018-Aug-24 00:37  m  01 57 37.294291 +04 15 21.66256
 2018-Aug-24 00:38  m  01 57 37.351188 +04 15 21.78993
 2018-Aug-24 00:39  m  01 57 37.408070 +04 15 21.91731
 2018-Aug-24 00:40  m  01 57 37.464940 +04 15 22.04469
 2018-Aug-24 00:41  m  01 57 37.521795 +04 15 22.17208
 2018-Aug-24 00:42  m  01 57 37.578638 +04 15 22.29947
 2018-Aug-24 00:43  m  01 57 37.635466 +04 15 22.42686
 2018-Aug-24 00:44  m  01 57 37.692281 +04 15 22.55426
 2018-Aug-24 00:45  m  01 57 37.749082 +04 15 22.68166
 2018-Aug-24 00:46  m  01 57 37.805870 +04 15 22.80906
 2018-Aug-24 00:47  m  01 57 37.862644 +04 15 22.93647
 2018-Aug-24 00:48  m  01 57 37.919404 +04 15 23.06388
 2018-Aug-24 00:49  m  01 57 37.976150 +04 15 23.19130
 2018-Aug-24 00:50  m  01 57 38.032882 +04 15 23.31871
 2018-Aug-24 00:51  m  01 57 38.089601 +04 15 23.44613
 2018-Aug-24 00:52  m  01 57 38.146306 +04 15 23.57356
 2018-Aug-24 00:53  m  01 57 38.202996 +04 15 23.70098
 2018-Aug-24 00:54  m  01 57 38.259673 +04 15 23.82841
 2018-Aug-24 00:55  m  01 57 38.316336 +04 15 23.95585
 2018-Aug-24 00:56  m  01 57 38.372985 +04 15 24.08328
 2018-Aug-24 00:57  m  01 57 38.429620 +04 15 24.21072
 2018-Aug-24 00:58  m  01 57 38.486241 +04 15 24.33816
 2018-Aug-24 00:59  m  01 57 38.542847 +04 15 24.46560
 2018-Aug-24 01:00  m  01 57 38.599440 +04 15 24.59305
 2018-Aug-24 01:01  m  01 57 38.656019 +04 15 24.72050
 2018-Aug-24 01:02  m  01 57 38.712583 +04 15 24.84795
 2018-Aug-24 01:03  m  01 57 38.769133 +04 15 24.97540
 2018-Aug-24 01:04  m  01 57 38.825669 +04 15 25.10286
 2018-Aug-24 01:05  m  01 57 38.882191 +04 15 25.23031
 2018-Aug-24 01:06  m  01 57 38.938699 +04 15 25.35777
 2018-Aug-24 01:07  m  01 57 38.995192 +04 15 25.48524
 2018-Aug-24 01:08  m  01 57 39.051671 +04 15 25.61270
 2018-Aug-24 01:09  m  01 57 39.108135 +04 15 25.74016
 2018-Aug-24 01:10  m  01 57 39.164586 +04 15 25.86763
 2018-Aug-24 01:11  m  01 57 39.221021 +04 15 25.99510
 2018-Aug-24 01:12  m  01 57 39.277443 +04 15 26.12257
 2018-Aug-24 01:13  m  01 57 39.333850 +04 15 26.25004
 2018-Aug-24 01:14  m  01 57 39.390243 +04 15 26.37752
 2018-Aug-24 01:15  m  01 57 39.446621 +04 15 26.50499
 2018-Aug-24 01:16  m  01 57 39.502984 +04 15 26.63247
 2018-Aug-24 01:17  m  01 57 39.559334 +04 15 26.75995
 2018-Aug-24 01:18  m  01 57 39.615668 +04 15 26.88743
 2018-Aug-24 01:19  m  01 57 39.671988 +04 15 27.01491
 2018-Aug-24 01:20  m  01 57 39.728294 +04 15 27.14239
 2018-Aug-24 01:21  m  01 57 39.784584 +04 15 27.26987
 2018-Aug-24 01:22  m  01 57 39.840861 +04 15 27.39736
 2018-Aug-24 01:23  m  01 57 39.897122 +04 15 27.52484
 2018-Aug-24 01:24  m  01 57 39.953369 +04 15 27.65233
 2018-Aug-24 01:25  m  01 57 40.009602 +04 15 27.77981
 2018-Aug-24 01:26  m  01 57 40.065819 +04 15 27.90730
 2018-Aug-24 01:27  m  01 57 40.122022 +04 15 28.03479
 2018-Aug-24 01:28  m  01 57 40.178210 +04 15 28.16228
 2018-Aug-24 01:29  m  01 57 40.234383 +04 15 28.28977
 2018-Aug-24 01:30  m  01 57 40.290542 +04 15 28.41725
 2018-Aug-24 01:31  m  01 57 40.346686 +04 15 28.54474
 2018-Aug-24 01:32  m  01 57 40.402815 +04 15 28.67223
 2018-Aug-24 01:33  m  01 57 40.458929 +04 15 28.79972
 2018-Aug-24 01:34  m  01 57 40.515028 +04 15 28.92721
 2018-Aug-24 01:35  m  01 57 40.571112 +04 15 29.05470
 2018-Aug-24 01:36  m  01 57 40.627182 +04 15 29.18219
 2018-Aug-24 01:37  m  01 57 40.683236 +04 15 29.30968
 2018-Aug-24 01:38  m  01 57 40.739276 +04 15 29.43717
 2018-Aug-24 01:39  m  01 57 40.795301 +04 15 29.56466
 2018-Aug-24 01:40  m  01 57 40.851311 +04 15 29.69215
 2018-Aug-24 01:41  m  01 57 40.907306 +04 15 29.81964
 2018-Aug-24 01:42  m  01 57 40.963285 +04 15 29.94713
 2018-Aug-24 01:43  m  01 57 41.019250 +04 15 30.07462
 2018-Aug-24 01:44  m  01 57 41.075200 +04 15 30.20211
 2018-Aug-24 01:45  m  01 57 41.131135 +04 15 30.32959
 2018-Aug-24 01:46  m  01 57 41.187055 +04 15 30.45708
 2018-Aug-24 01:47  m  01 57 41.242960 +04 15 30.58456
 2018-Aug-24 01:48  m  01 57 41.298849 +04 15 30.71205
 2018-Aug-24 01:49  m  01 57 41.354724 +04 15 30.83953
 2018-Aug-24 01:50  m  01 57 41.410583 +04 15 30.96701
 2018-Aug-24 01:51  m  01 57 41.466428 +04 15 31.09450
 2018-Aug-24 01:52  m  01 57 41.522257 +04 15 31.22198
 2018-Aug-24 01:53  m  01 57 41.578071 +04 15 31.34945
 2018-Aug-24 01:54  m  01 57 41.633870 +04 15 31.47693
 2018-Aug-24 01:55  m  01 57 41.689654 +04 15 31.60441
 2018-Aug-24 01:56  m  01 57 41.745423 +04 15 31.73188
 2018-Aug-24 01:57  m  01 57 41.801176 +04 15 31.85936
 2018-Aug-24 01:58  m  01 57 41.856914 +04 15 31.98683
 2018-Aug-24 01:59  m  01 57 41.912638 +04 15 32.11430
 2018-Aug-24 02:00  m  01 57 41.968345 +04 15 32.24176
 2018-Aug-24 02:01  m  01 57 42.024038 +04 15 32.36923
 2018-Aug-24 02:02  m  01 57 42.079716 +04 15 32.49669
 2018-Aug-24 02:03  m  01 57 42.135378 +04 15 32.62416
 2018-Aug-24 02:04  m  01 57 42.191025 +04 15 32.75162
 2018-Aug-24 02:05  m  01 57 42.246657 +04 15 32.87907
 2018-Aug-24 02:06  m  01 57 42.302273 +04 15 33.00653
 2018-Aug-24 02:07  m  01 57 42.357874 +04 15 33.13398
 2018-Aug-24 02:08  m  01 57 42.413460 +04 15 33.26143
 2018-Aug-24 02:09  m  01 57 42.469031 +04 15 33.38888
 2018-Aug-24 02:10  m  01 57 42.524586 +04 15 33.51633
 2018-Aug-24 02:11  m  01 57 42.580126 +04 15 33.64377
 2018-Aug-24 02:12  m  01 57 42.635651 +04 15 33.77121
 2018-Aug-24 02:13  m  01 57 42.691160 +04 15 33.89865
 2018-Aug-24 02:14  m  01 57 42.746654 +04 15 34.02609
 2018-Aug-24 02:15  m  01 57 42.802133 +04 15 34.15352
 2018-Aug-24 02:16  m  01 57 42.857596 +04 15 34.28095
 2018-Aug-24 02:17  m  01 57 42.913045 +04 15 34.40837
 2018-Aug-24 02:18  m  01 57 42.968477 +04 15 34.53580
 2018-Aug-24 02:19  m  01 57 43.023895 +04 15 34.66322
 2018-Aug-24 02:20  m  01 57 43.079297 +04 15 34.79064
 2018-Aug-24 02:21  m  01 57 43.134683 +04 15 34.91805
 2018-Aug-24 02:22  m  01 57 43.190055 +04 15 35.04546
 2018-Aug-24 02:23  m  01 57 43.245411 +04 15 35.17287
 2018-Aug-24 02:24  m  01 57 43.300751 +04 15 35.30027
 2018-Aug-24 02:25  m  01 57 43.356076 +04 15 35.42767
 2018-Aug-24 02:26  m  01 57 43.411386 +04 15 35.55506
 2018-Aug-24 02:27  m  01 57 43.466681 +04 15 35.68246
 2018-Aug-24 02:28  m  01 57 43.521960 +04 15 35.80984
 2018-Aug-24 02:29  m  01 57 43.577223 +04 15 35.93723
 2018-Aug-24 02:30  m  01 57 43.632472 +04 15 36.06461
 2018-Aug-24 02:31  m  01 57 43.687705 +04 15 36.19198
 2018-Aug-24 02:32  m  01 57 43.742922 +04 15 36.31936
 2018-Aug-24 02:33  r  01 57 43.798124 +04 15 36.44672
 2018-Aug-24 02:34  m  01 57 43.853311 +04 15 36.57409
 2018-Aug-24 02:35  m  01 57 43.908482 +04 15 36.70145
 2018-Aug-24 02:36  m  01 57 43.963638 +04 15 36.82880
